{
  "type": "FeatureCollection",
  "features": [
    {
      "type": "Feature",
      "properties": {
        "norad_id": 31087,
        "name": "FENGYUN 1C DEB",
        "group": "fengyun-1c-debris",
        "lat": -4.9776440422268555,
        "lon": -167.06964262785277,
        "alt_km": 683.2172930150546,
        "timestamp": "2025-12-19T08:58:49.618817+00:00",
        "meta_object_name": "FENGYUN 1C DEB",
        "meta_object_id": "1999-025BGH",
        "meta_epoch": "2025-12-18T13:05:42.825984",
        "meta_mean_motion": 14.60362805,
        "meta_eccentricity": 0.01716668,
        "meta_inclination": 98.102,
        "meta_ra_of_asc_node": 12.8307,
        "meta_arg_of_pericenter": 272.624,
        "meta_mean_anomaly": 240.8799,
        "meta_ephemeris_type": 0,
        "meta_classification_type": "U",
        "meta_norad_cat_id": 31087,
        "meta_element_set_no": 999,
        "meta_rev_at_epoch": 98854,
        "meta_bstar": 0.00060926496,
        "meta_mean_motion_dot": 3.571e-05,
        "meta_mean_motion_ddot": 0,
        "tle_line1": "1 31087U 99025BGH 25352.54563456  .00003571  00000+0  60926-3 0  9990",
        "tle_line2": "2 31087  98.1020  12.8307 0171666 272.6240 240.8799 14.60362805988540"
      },
      "geometry": {
        "type": "Point",
        "coordinates": [
          -167.06964262785277,
          -4.9776440422268555
        ]
      }
    },
    {
      "type": "Feature",
      "properties": {
        "norad_id": 31088,
        "name": "FENGYUN 1C DEB",
        "group": "fengyun-1c-debris",
        "lat": 56.341124315805,
        "lon": 39.65107147512166,
        "alt_km": 770.9427699889002,
        "timestamp": "2025-12-19T08:58:49.618827+00:00",
        "meta_object_name": "FENGYUN 1C DEB",
        "meta_object_id": "1999-025BGJ",
        "meta_epoch": "2025-12-17T16:58:23.303424",
        "meta_mean_motion": 14.28736501,
        "meta_eccentricity": 0.00282175,
        "meta_inclination": 99.4119,
        "meta_ra_of_asc_node": 52.2781,
        "meta_arg_of_pericenter": 47.0485,
        "meta_mean_anomaly": 81.2083,
        "meta_ephemeris_type": 0,
        "meta_classification_type": "U",
        "meta_norad_cat_id": 31088,
        "meta_element_set_no": 999,
        "meta_rev_at_epoch": 96620,
        "meta_bstar": 0.0012770931,
        "meta_mean_motion_dot": 3.179e-05,
        "meta_mean_motion_ddot": 0,
        "tle_line1": "1 31088U 99025BGJ 25351.70721416  .00003179  00000+0  12771-2 0  9998",
        "tle_line2": "2 31088  99.4119  52.2781 0028217  47.0485  81.2083 14.28736501966200"
      },
      "geometry": {
        "type": "Point",
        "coordinates": [
          39.65107147512166,
          56.341124315805
        ]
      }
    },
    {
      "type": "Feature",
      "properties": {
        "norad_id": 31089,
        "name": "FENGYUN 1C DEB",
        "group": "fengyun-1c-debris",
        "lat": -80.96314562605887,
        "lon": -142.61778403049155,
        "alt_km": 906.445053069292,
        "timestamp": "2025-12-19T08:58:49.618837+00:00",
        "meta_object_name": "FENGYUN 1C DEB",
        "meta_object_id": "1999-025BGK",
        "meta_epoch": "2025-12-16T08:54:38.899584",
        "meta_mean_motion": 13.88332505,
        "meta_eccentricity": 0.02061137,
        "meta_inclination": 98.9495,
        "meta_ra_of_asc_node": 132.2833,
        "meta_arg_of_pericenter": 201.7776,
        "meta_mean_anomaly": 186.7705,
        "meta_ephemeris_type": 0,
        "meta_classification_type": "U",
        "meta_norad_cat_id": 31089,
        "meta_element_set_no": 999,
        "meta_rev_at_epoch": 68110,
        "meta_bstar": 0.00075252237,
        "meta_mean_motion_dot": 1.025e-05,
        "meta_mean_motion_ddot": 0,
        "tle_line1": "1 31089U 99025BGK 25350.37128356  .00001025  00000+0  75252-3 0  9997",
        "tle_line2": "2 31089  98.9495 132.2833 0206113 201.7776 186.7705 13.88332505681100"
      },
      "geometry": {
        "type": "Point",
        "coordinates": [
          -142.61778403049155,
          -80.96314562605887
        ]
      }
    },
    {
      "type": "Feature",
      "properties": {
        "norad_id": 31090,
        "name": "FENGYUN 1C DEB",
        "group": "fengyun-1c-debris",
        "lat": -33.642969812893504,
        "lon": -87.206984865133,
        "alt_km": 478.77824886923645,
        "timestamp": "2025-12-19T08:58:49.618847+00:00",
        "meta_object_name": "FENGYUN 1C DEB",
        "meta_object_id": "1999-025BGL",
        "meta_epoch": "2025-12-17T20:02:59.212320",
        "meta_mean_motion": 15.33969258,
        "meta_eccentricity": 0.00544623,
        "meta_inclination": 98.983,
        "meta_ra_of_asc_node": 96.9664,
        "meta_arg_of_pericenter": 114.9454,
        "meta_mean_anomaly": 245.7456,
        "meta_ephemeris_type": 0,
        "meta_classification_type": "U",
        "meta_norad_cat_id": 31090,
        "meta_element_set_no": 999,
        "meta_rev_at_epoch": 916,
        "meta_bstar": 0.0013679195,
        "meta_mean_motion_dot": 0.00047292,
        "meta_mean_motion_ddot": 0,
        "tle_line1": "1 31090U 99025BGL 25351.83540755  .00047292  00000+0  13679-2 0  9992",
        "tle_line2": "2 31090  98.9830  96.9664 0054462 114.9454 245.7456 15.33969258  9161"
      },
      "geometry": {
        "type": "Point",
        "coordinates": [
          -87.206984865133,
          -33.642969812893504
        ]
      }
    },
    {
      "type": "Feature",
      "properties": {
        "norad_id": 31091,
        "name": "FENGYUN 1C DEB",
        "group": "fengyun-1c-debris",
        "lat": 61.23583600145721,
        "lon": -47.227813431133036,
        "alt_km": 1121.1001102054288,
        "timestamp": "2025-12-19T08:58:49.618857+00:00",
        "meta_object_name": "FENGYUN 1C DEB",
        "meta_object_id": "1999-025BGM",
        "meta_epoch": "2025-12-18T18:29:24.179136",
        "meta_mean_motion": 13.54154938,
        "meta_eccentricity": 0.02904608,
        "meta_inclination": 99.2252,
        "meta_ra_of_asc_node": 329.4286,
        "meta_arg_of_pericenter": 313.7095,
        "meta_mean_anomaly": 44.0311,
        "meta_ephemeris_type": 0,
        "meta_classification_type": "U",
        "meta_norad_cat_id": 31091,
        "meta_element_set_no": 999,
        "meta_rev_at_epoch": 61721,
        "meta_bstar": 0.00061777539,
        "meta_mean_motion_dot": 5.06e-06,
        "meta_mean_motion_ddot": 0,
        "tle_line1": "1 31091U 99025BGM 25352.77041874  .00000506  00000+0  61778-3 0  9996",
        "tle_line2": "2 31091  99.2252 329.4286 0290460 313.7095  44.0311 13.54154938617211"
      },
      "geometry": {
        "type": "Point",
        "coordinates": [
          -47.227813431133036,
          61.23583600145721
        ]
      }
    },
    {
      "type": "Feature",
      "properties": {
        "norad_id": 31092,
        "name": "FENGYUN 1C DEB",
        "group": "fengyun-1c-debris",
        "lat": -62.38789797683921,
        "lon": -90.08231934142344,
        "alt_km": 1221.455624897334,
        "timestamp": "2025-12-19T08:58:49.618867+00:00",
        "meta_object_name": "FENGYUN 1C DEB",
        "meta_object_id": "1999-025BGN",
        "meta_epoch": "2025-12-17T20:08:19.647456",
        "meta_mean_motion": 13.46542832,
        "meta_eccentricity": 0.0327337,
        "meta_inclination": 99.7194,
        "meta_ra_of_asc_node": 107.5532,
        "meta_arg_of_pericenter": 124.2222,
        "meta_mean_anomaly": 239.0386,
        "meta_ephemeris_type": 0,
        "meta_classification_type": "U",
        "meta_norad_cat_id": 31092,
        "meta_element_set_no": 999,
        "meta_rev_at_epoch": 91950,
        "meta_bstar": 0.0011214769,
        "meta_mean_motion_dot": 8.95e-06,
        "meta_mean_motion_ddot": 0,
        "tle_line1": "1 31092U 99025BGN 25351.83911629  .00000895  00000+0  11215-2 0  9998",
        "tle_line2": "2 31092  99.7194 107.5532 0327337 124.2222 239.0386 13.46542832919502"
      },
      "geometry": {
        "type": "Point",
        "coordinates": [
          -90.08231934142344,
          -62.38789797683921
        ]
      }
    },
    {
      "type": "Feature",
      "properties": {
        "norad_id": 31093,
        "name": "FENGYUN 1C DEB",
        "group": "fengyun-1c-debris",
        "lat": 51.59414163774695,
        "lon": 22.779064917950837,
        "alt_km": 921.0959140890045,
        "timestamp": "2025-12-19T08:58:49.618891+00:00",
        "meta_object_name": "FENGYUN 1C DEB",
        "meta_object_id": "1999-025BGP",
        "meta_epoch": "2025-12-17T12:51:57.616992",
        "meta_mean_motion": 13.8063714,
        "meta_eccentricity": 0.02083029,
        "meta_inclination": 98.5945,
        "meta_ra_of_asc_node": 190.1084,
        "meta_arg_of_pericenter": 210.1547,
        "meta_mean_anomaly": 148.7483,
        "meta_ephemeris_type": 0,
        "meta_classification_type": "U",
        "meta_norad_cat_id": 31093,
        "meta_element_set_no": 999,
        "meta_rev_at_epoch": 94573,
        "meta_bstar": 0.00036013196,
        "meta_mean_motion_dot": 4.06e-06,
        "meta_mean_motion_ddot": 0,
        "tle_line1": "1 31093U 99025BGP 25351.53608353  .00000406  00000+0  36013-3 0  9995",
        "tle_line2": "2 31093  98.5945 190.1084 0208302 210.1547 148.7483 13.80637140945732"
      },
      "geometry": {
        "type": "Point",
        "coordinates": [
          22.779064917950837,
          51.59414163774695
        ]
      }
    }
  ]
}